{"type":"FeatureCollection","features":[{"type":"Feature","geometry":{"type":"Polygon","coordinates":[[[10.8544,58.9336],[10.8663,58.9331],[10.9179,58.9423],[10.9832,58.9604],[11.0664,58.9774],[11.0924,58.9918],[11.1171,59.0151],[11.1535,59.0793],[11.2249,59.0876],[11.2461,59.0929],[11.2519,59.0944],[11.0,60.0],[10.0,60.0],[8.0,58.75],[5.489,58.752],[5.4617,58.733],[5.4624,58.7319],[5.5082,58.6635],[5.5082,58.6635],[5.5095,58.6618],[5.5202,58.6501],[5.5212,58.6492],[5.6321,58.5455],[5.633,58.5447],[5.635,58.5432],[5.6768,58.5158],[5.6778,58.5152],[5.8388,58.4186],[5.8399,58.4179],[5.8509,58.412],[5.8527,58.4111],[6.0674,58.3112],[6.3217,58.1917],[6.5742,58.0718],[6.5748,58.0715],[6.6064,58.0571],[6.608,58.0564],[6.6108,58.0554],[6.6456,58.0444],[6.6466,58.0441],[6.6496,58.0433],[6.6586,58.0413],[6.6588,58.0412],[6.6793,58.0368],[6.9922,57.9685],[6.9945,57.9681],[6.9977,57.9676],[7.196,57.9454],[7.1987,57.9452],[7.2021,57.945],[7.2263,57.9449],[7.5639,57.9419],[7.5646,57.9419],[7.568,57.942],[7.6179,57.9449],[7.6205,57.9451],[7.6237,57.9456],[7.655,57.9507],[7.6574,57.9512],[7.6968,57.9596],[7.6973,57.9597],[7.7171,57.9642],[8.0292,58.0334],[8.0307,58.0337],[8.2055,58.0778],[8.2056,58.0778],[8.2648,58.0929],[8.2671,58.0935],[8.2699,58.0945],[8.2725,58.0956],[8.4983,58.2054],[8.4986,58.2055],[8.6799,58.2954],[8.682,58.2966],[8.8837,58.4173],[9.1108,58.5518],[9.3397,58.6859],[9.5703,58.8196],[9.6387,58.8379],[9.9474,58.9197],[10.1631,58.9492],[10.164,58.9494],[10.2343,58.96],[10.5319,58.9473],[10.8544,58.9336]]]},"properties":{"po":"1","g":"sor","name":"Svenskegrensen til Jæren"}},{"type":"Feature","geometry":{"type":"Polygon","coordinates":[[[5.3632,58.7284],[5.3925,58.6848],[5.489,58.752],[8.0,58.75],[7.0,60.0],[5.91,59.61],[5.34,59.43],[5.296,59.375],[5.26,59.35],[5.27,59.18],[5.193,59.148],[4.7582,59.2229],[4.763,59.2206],[4.7631,59.2205],[4.7665,59.2191],[4.7688,59.2181],[4.7698,59.2177],[4.7705,59.2174],[4.7836,59.2123],[5.0814,59.0946],[5.2447,58.9799],[5.297,58.8624],[5.2977,58.8609],[5.3599,58.734],[5.3606,58.7327],[5.3632,58.7284]]]},"properties":{"po":"2","g":"rog","name":"Ryfylket"}},{"type":"Feature","geometry":{"type":"Polygon","coordinates":[[[4.6182,60.3007],[4.626,60.2861],[4.6791,60.1157],[4.7337,59.9383],[4.7809,59.7835],[4.8066,59.6577],[4.714,59.5138],[4.6052,59.3433],[4.5814,59.2922],[4.5913,59.2515],[4.7582,59.2229],[5.193,59.148],[5.27,59.18],[5.26,59.35],[5.296,59.375],[5.34,59.43],[5.91,59.61],[7.0,60.0],[8.0,60.7],[6.8,60.7],[5.8,60.41],[5.33,60.41],[5.33,60.45],[5.272,60.46],[5.235,60.459],[5.14,60.49],[5.073,60.465],[5.037,60.459],[4.987,60.457],[5.0,60.43],[4.984,60.417],[4.966,60.441],[4.955,60.457],[4.9405,60.4625],[4.934,60.458],[4.923,60.454],[4.904,60.446],[4.5319,60.4603],[4.5377,60.4497],[4.6182,60.3007]]]},"properties":{"po":"3","g":"vest","name":"Karmøy til Sotra"}},{"type":"Feature","geometry":{"type":"Polygon","coordinates":[[[4.6634,60.4731],[4.6732,60.455],[4.904,60.446],[4.923,60.454],[4.934,60.458],[4.9405,60.4625],[4.955,60.457],[4.966,60.441],[4.984,60.417],[5.0,60.43],[4.987,60.457],[5.037,60.459],[5.073,60.465],[5.14,60.49],[5.235,60.459],[5.272,60.46],[5.33,60.45],[5.33,60.41],[5.8,60.41],[6.8,60.7],[8.0,60.7],[8.0,62.0],[5.44,62.0],[5.44,62.04],[5.101,62.194],[5.0408,62.2986],[4.9688,62.2471],[4.9355,62.2232],[4.9351,62.2229],[4.9302,62.219],[4.9259,62.215],[4.7701,62.0572],[4.768,62.055],[4.6862,61.9627],[4.6861,61.9626],[4.5809,61.8424],[4.4371,61.6763],[4.434,61.6724],[4.4313,61.6681],[4.4292,61.6637],[4.4277,61.6592],[4.4269,61.6548],[4.4223,61.6146],[4.402,61.4354],[4.382,61.2562],[4.3621,61.077],[4.362,61.0727],[4.3628,61.0337],[4.363,61.0307],[4.3636,61.025],[4.3637,61.0245],[4.3646,61.02],[4.3661,61.0156],[4.3682,61.0112],[4.3782,60.9932],[4.4743,60.8199],[4.5694,60.6466],[4.6634,60.4731]]]},"properties":{"po":"4","g":"vest","name":"Nordhordland til Stadt"}},{"type":"Feature","geometry":{"type":"Polygon","coordinates":[[[5.0408,62.2986],[5.101,62.194],[5.44,62.04],[5.44,62.0],[8.0,62.0],[8.6,62.5],[8.0,62.83],[7.2,62.9],[7.105,62.988],[6.9424,63.129],[6.8041,63.0829],[6.4869,62.9759],[6.1721,62.8682],[6.1713,62.8679],[6.1637,62.8651],[6.1566,62.862],[6.154,62.8608],[5.8782,62.7333],[5.8766,62.7325],[5.6911,62.6429],[5.4239,62.5124],[5.1591,62.3814],[5.1555,62.3796],[5.1495,62.3761],[5.1439,62.3724],[5.0408,62.2986]]]},"properties":{"po":"5","g":"more","name":"Stadt til Hustadvika"}},{"type":"Feature","geometry":{"type":"Polygon","coordinates":[[[6.8736,63.1885],[7.105,62.988],[7.2,62.9],[8.0,62.83],[8.6,62.5],[12.3,63.9],[10.613,64.391],[10.51,64.429],[9.8453,64.524],[9.8451,64.524],[9.7859,64.4956],[9.5099,64.3616],[9.2365,64.2271],[8.6291,64.0009],[8.2289,64.0004],[8.2212,63.9968],[7.968,63.8474],[7.7267,63.7032],[7.5755,63.6118],[7.4824,63.5437],[7.2532,63.4035],[7.0188,63.2583],[6.9453,63.2123],[6.8736,63.1885]]]},"properties":{"po":"6","g":"trond","name":"Nordmøre og Sør-Trøndelag"}},{"type":"Feature","geometry":{"type":"Polygon","coordinates":[[[9.8453,64.524],[10.51,64.429],[10.613,64.391],[12.3,63.9],[13.2,64.6],[13.3,65.35],[12.6,65.35],[12.33,65.41],[12.2,65.33],[12.1,65.22],[12.038,65.2167],[11.972,65.2295],[11.963,65.231],[11.0723,65.4922],[10.9844,65.4009],[10.8252,65.2497],[10.6544,65.0853],[10.4857,64.9208],[10.4845,64.9194],[10.4198,64.837],[10.419,64.8359],[10.4182,64.8341],[10.4027,64.7884],[10.3463,64.7619],[10.0647,64.629],[9.8451,64.524],[9.8453,64.524]]]},"properties":{"po":"7","g":"trond","name":"Nord-Trøndelag med Bindal"}},{"type":"Feature","geometry":{"type":"Polygon","coordinates":[[[11.08,65.49],[11.963,65.231],[11.972,65.2295],[12.038,65.2167],[12.1,65.22],[12.2,65.33],[12.33,65.41],[12.6,65.35],[13.3,65.35],[14.2,66.1],[15.6,67.05],[15.7,67.3],[15.1,67.4],[14.8,67.35],[14.31,67.264],[13.4,67.43],[12.1927,66.9873],[12.2334,66.9439],[12.3897,66.7754],[12.3004,66.7363],[11.9987,66.6027],[11.9984,66.6026],[11.9956,66.6012],[11.9932,66.5996],[11.9913,66.598],[11.8508,66.4631],[11.6803,66.2973],[11.512,66.1313],[11.5115,66.1308],[11.5102,66.129],[11.429,65.995],[11.3249,65.8207],[11.2221,65.6464],[11.1451,65.5674],[11.0723,65.4922],[11.08,65.49]]]},"properties":{"po":"8","g":"nordl","name":"Helgeland til Bodø"}},{"type":"Feature","geometry":{"type":"Polygon","coordinates":[[[12.0749,67.1122],[12.1927,66.9873],[13.4,67.43],[14.31,67.264],[14.8,67.35],[15.1,67.4],[15.7,67.3],[15.95,67.5],[16.55,67.8],[17.05,68.2],[17.8,68.1],[18.0,68.6],[16.578,68.628],[16.0,68.6],[16.0,68.5],[15.7,68.5],[15.75,68.7],[15.653,68.961],[15.634,68.967],[15.65,69.0],[16.122,69.32],[16.0962,69.367],[16.0784,69.364],[16.0181,69.3537],[16.0148,69.353],[16.0106,69.352],[15.9344,69.3319],[15.5303,69.2239],[15.1303,69.1149],[15.1269,69.1139],[15.1234,69.1126],[14.9231,69.0293],[14.5995,68.8928],[14.2798,68.7557],[14.2775,68.7546],[14.2749,68.7531],[14.2727,68.7515],[14.1715,68.6638],[14.1413,68.6456],[13.8883,68.492],[13.6386,68.3381],[13.5159,68.3053],[13.1254,68.1995],[13.1241,68.1992],[13.1205,68.198],[13.1172,68.1966],[13.0259,68.155],[13.0234,68.1537],[13.0209,68.1521],[12.9593,68.1078],[12.7398,67.9484],[12.7386,67.9475],[12.737,67.9458],[12.6855,67.8842],[12.5439,67.7131],[12.3635,67.661],[11.9904,67.5519],[11.9883,67.5512],[11.947,67.5374],[11.9463,67.5371],[11.8319,67.4969],[11.8315,67.4967],[11.8283,67.4954],[11.8255,67.494],[11.823,67.4925],[11.8211,67.4908],[11.8196,67.4891],[11.7802,67.4353],[11.7795,67.4342],[11.7794,67.4339],[11.779,67.4331],[11.7785,67.4313],[11.7786,67.4295],[11.7791,67.4277],[11.7801,67.426],[11.8015,67.397],[11.8026,67.3957],[11.9142,67.2804],[12.0749,67.1122]]]},"properties":{"po":"9","g":"nordl","name":"Vestfjorden og Vesterålen"}},{"type":"Feature","geometry":{"type":"Polygon","coordinates":[[[16.0962,69.367],[16.122,69.32],[15.65,69.0],[15.634,68.967],[15.653,68.961],[15.75,68.7],[15.7,68.5],[16.0,68.5],[16.0,68.6],[16.578,68.628],[18.0,68.6],[19.2,69.0],[19.2,69.3],[18.78,69.4],[18.742,69.544],[18.734,69.558],[18.7,69.6],[18.3,69.55],[18.047,69.623],[18.001,69.636],[17.949,69.644],[17.7478,69.8016],[17.6966,69.7699],[17.4466,69.613],[17.3649,69.5964],[16.9228,69.5056],[16.4766,69.4315],[16.0962,69.367]]]},"properties":{"po":"10","g":"nord","name":"Andøya til Senja"}},{"type":"Feature","geometry":{"type":"Polygon","coordinates":[[[17.7478,69.8016],[17.949,69.644],[18.001,69.636],[18.3,69.55],[18.7,69.6],[18.734,69.558],[18.742,69.544],[18.78,69.4],[19.2,69.3],[19.2,69.0],[22.7,69.7],[22.2,70.0],[22.1,70.15],[21.7,70.1],[21.48,70.19],[21.2,70.223],[20.9337,70.5654],[20.3925,70.4969],[19.8933,70.4319],[19.8933,70.4319],[19.5544,70.3867],[19.0607,70.3193],[19.0562,70.3185],[18.6192,70.239],[18.6185,70.2389],[18.6141,70.2379],[18.6099,70.2368],[18.6062,70.2355],[18.6029,70.2341],[18.3428,70.1112],[18.3426,70.1111],[18.1909,70.0375],[17.892,69.8904],[17.8895,69.8891],[17.7478,69.8016]]]},"properties":{"po":"11","g":"nord","name":"Kvaløya til Loppa"}},{"type":"Feature","geometry":{"type":"Polygon","coordinates":[[[20.9337,70.5654],[21.2,70.223],[21.48,70.19],[21.7,70.1],[22.1,70.15],[22.2,70.0],[22.7,69.7],[25.0,69.9],[27.07,70.25],[27.72,70.81],[28.056,71.088],[28.0771,71.1249],[27.6672,71.1504],[27.6626,71.1506],[27.3394,71.1604],[26.7866,71.176],[26.2329,71.19],[25.6785,71.2023],[25.6754,71.2023],[25.6698,71.2022],[25.6643,71.2019],[25.2524,71.1727],[24.7118,71.1328],[24.6096,71.1307],[24.0572,71.1187],[24.0526,71.1185],[23.9679,71.114],[23.9636,71.1138],[23.9583,71.1132],[23.9532,71.1125],[23.9449,71.1111],[23.9412,71.1105],[23.7089,71.0641],[23.2415,70.9694],[22.7785,70.8734],[22.7776,70.8732],[22.4047,70.7905],[21.9567,70.6892],[21.9091,70.6836],[21.4005,70.6228],[20.9337,70.5654]]]},"properties":{"po":"12","g":"nord","name":"Vest-Finnmark"}},{"type":"Feature","geometry":{"type":"Polygon","coordinates":[[[28.0771,71.1249],[28.056,71.088],[27.72,70.81],[27.07,70.25],[28.0,70.25],[29.7,69.5],[30.0,69.67],[30.2,69.68],[30.5,69.6],[30.82,69.787],[30.8219,69.7883],[30.8217,69.7889],[30.8216,69.7893],[30.8216,69.7913],[30.8177,69.7948],[30.8891,69.8411],[30.9337,69.9315],[31.0221,70.1082],[31.112,70.2849],[31.2151,70.3812],[31.2162,70.3825],[31.2174,70.3842],[31.2179,70.386],[31.2179,70.3878],[31.2178,70.3885],[31.2173,70.3902],[31.2161,70.392],[31.2144,70.3937],[31.2122,70.3953],[31.2075,70.3984],[31.2065,70.3989],[31.2036,70.4004],[31.1873,70.408],[31.1843,70.4092],[31.1806,70.4104],[31.0502,70.45],[30.6508,70.5698],[30.2466,70.6887],[30.2445,70.6893],[30.1263,70.72],[30.1236,70.7207],[30.119,70.7216],[29.7534,70.7854],[29.2696,70.8682],[29.1202,70.9041],[28.676,71.0094],[28.227,71.1137],[28.2241,71.1143],[28.2193,71.1151],[28.2141,71.1158],[28.2088,71.1163],[28.1909,71.1176],[28.1894,71.1177],[28.0771,71.1249]]]},"properties":{"po":"13","g":"nord","name":"Øst-Finnmark"}}]}